{
  "type": "FeatureCollection",
  "features": [
    {
      "type": "Feature",
      "properties": {
        "name": "coverage_path",
        "source": "builtin_default_mission",
        "coordinate_frame": "base_footprint"
      },
      "geometry": {
        "type": "LineString",
        "coordinates": [
          [0.0, 0.0],
          [0.0, -1.5],
          [0.5, -1.5],
          [0.5, 1.5],
          [1.0, 1.5],
          [1.0, -1.5],
          [1.5, -1.5],
          [1.5, 1.5],
          [2.0, 1.5],
          [2.0, -1.5],
          [2.5, -1.5],
          [2.5, 1.5],
          [3.0, 1.5],
          [3.0, -1.5]
        ]
      }
    }
  ]
}
