{
  "type": "FeatureCollection",
  "features": [
    {
      "type": "Feature",
      "properties": {
        "name": "coverage_path",
        "source": "builtin_default_mission",
        "coordinate_frame": "odom"
      },
      "geometry": {
        "type": "LineString",
        "coordinates": [
          [0.0, 0.0],
          [0.10, 0.00],
          [0.14, 0.14],
          [0.00, 0.30],
          [-0.28, 0.28],
          [-0.50, 0.00],
          [-0.42, -0.42],
          [0.00, -0.70],
          [0.57, -0.57],
          [0.90, 0.00],
          [0.71, 0.71],
          [0.00, 1.10],
          [-0.85, 0.85],
          [-1.30, 0.00],
          [-0.99, -0.99],
          [0.00, -1.50],
          [1.13, -1.13],
          [1.50, 0.00],
          [1.06, 1.06],
          [0.00, 1.10],
          [-0.78, 0.78],
          [-1.00, 0.00],
          [-0.64, -0.64],
          [0.00, -0.70],
          [0.49, -0.49],
          [0.60, 0.00],
          [0.35, 0.35],
          [0.00, 0.30],
          [-0.21, 0.21],
          [-0.20, 0.00],
          [-0.07, -0.07],
          [0.00, 0.00]
        ]
      }
    }
  ]
}
