{
  "type": "FeatureCollection",
  "features": [
    {
      "type": "Feature",
      "properties": {
        "name": "coverage_path",
        "source": "builtin_default_mission",
        "coordinate_frame": "base_footprint"
      },
      "geometry": {
        "type": "LineString",
        "coordinates": [
          [0.0, 0.0],
          [0.75, 0.0],
          [0.75, -0.75],
          [-0.75, -0.75],
          [-0.75, 0.75],
          [0.75, 0.75],
          [0.75, 0.0],
          [0.0, 0.0]
        ]
      }
    }
  ]
}
