{
  "type": "FeatureCollection",
  "features": [
    {
      "type": "Feature",
      "properties": {
        "name": "coverage_path",
        "source": "builtin_default_mission",
        "coordinate_frame": "base_footprint",
        "pattern": "smooth_outward_then_inward_spiral",
        "target_leg_length_m": 0.25,
        "outer_radius_m": 1.6
      },
      "geometry": {
        "type": "LineString",
        "coordinates": [
          [-0.034, 0.176],
          [-0.26, 0.106],
          [-0.334, -0.126],
          [-0.233, -0.35],
          [-0.02, -0.475],
          [0.227, -0.474],
          [0.446, -0.357],
          [0.593, -0.158],
          [0.648, 0.084],
          [0.607, 0.33],
          [0.481, 0.544],
          [0.29, 0.703],
          [0.057, 0.791],
          [-0.192, 0.801],
          [-0.433, 0.736],
          [-0.644, 0.605],
          [-0.81, 0.418],
          [-0.918, 0.194],
          [-0.964, -0.051],
          [-0.945, -0.299],
          [-0.864, -0.535],
          [-0.728, -0.744],
          [-0.546, -0.915],
          [-0.329, -1.038],
          [-0.09, -1.108],
          [0.159, -1.123],
          [0.406, -1.083],
          [0.638, -0.991],
          [0.845, -0.852],
          [1.018, -0.673],
          [1.152, -0.462],
          [1.241, -0.228],
          [1.281, 0.018],
          [1.273, 0.267],
          [1.218, 0.511],
          [1.117, 0.739],
          [0.976, 0.945],
          [0.799, 1.121],
          [0.593, 1.263],
          [0.366, 1.365],
          [0.124, 1.426],
          [-0.125, 1.443],
          [-0.374, 1.418],
          [-0.614, 1.35],
          [-0.84, 1.243],
          [-1.045, 1.1],
          [-1.223, 0.926],
          [-1.371, 0.724],
          [-1.484, 0.502],
          [-1.561, 0.264],
          [-1.599, 0.017],
          [-1.568, -0.23],
          [-1.497, -0.47],
          [-1.389, -0.695],
          [-1.246, -0.899],
          [-1.071, -1.078],
          [-0.87, -1.226],
          [-0.647, -1.338],
          [-0.408, -1.411],
          [-0.16, -1.442],
          [0.089, -1.431],
          [0.333, -1.376],
          [0.563, -1.279],
          [0.772, -1.143],
          [0.953, -0.971],
          [1.1, -0.769],
          [1.206, -0.544],
          [1.268, -0.302],
          [1.283, -0.053],
          [1.249, 0.195],
          [1.167, 0.43],
          [1.04, 0.645],
          [0.871, 0.829],
          [0.668, 0.974],
          [0.439, 1.073],
          [0.194, 1.121],
          [-0.055, 1.114],
          [-0.297, 1.051],
          [-0.517, 0.935],
          [-0.705, 0.771],
          [-0.848, 0.566],
          [-0.937, 0.333],
          [-0.965, 0.086],
          [-0.929, -0.161],
          [-0.828, -0.389],
          [-0.67, -0.581],
          [-0.464, -0.722],
          [-0.227, -0.797],
          [0.022, -0.797],
          [0.259, -0.72],
          [0.458, -0.57],
          [0.594, -0.362],
          [0.648, -0.119],
          [0.606, 0.126],
          [0.471, 0.334],
          [0.26, 0.464],
          [0.014, 0.483],
          [-0.208, 0.374],
          [-0.329, 0.161],
          [-0.282, -0.078],
          [-0.068, -0.184],
          [0.032, -0.011]
        ]
      }
    }
  ]
}
