{
  "type": "FeatureCollection",
  "features": [
    {
      "type": "Feature",
      "properties": {
        "name": "coverage_path",
        "source": "builtin_default_mission",
        "coordinate_frame": "odom"
      },
      "geometry": {
        "type": "LineString",
        "coordinates": [
          [0.0, 0.0],
          [3.0, 0.0],
          [3.0, 0.5],
          [0.0, 0.5],
          [0.0, 1.0],
          [3.0, 1.0],
          [3.0, 1.5],
          [0.0, 1.5],
          [0.0, 2.0],
          [3.0, 2.0],
          [3.0, 2.5],
          [0.0, 2.5],
          [0.0, 3.0],
          [3.0, 3.0]
        ]
      }
    }
  ]
}
